{"fetched_at":"2026-07-18T06:28:17.350Z","source":"https://celestrak.org/NORAD/elements/gp.php?NAME=LEGION&FORMAT=JSON","constellation":"maxar-legion","records":[{"OBJECT_NAME":"LEGION 1","OBJECT_ID":"2024-081A","EPOCH":"2026-07-17T21:41:26.266272","CLASSIFICATION_TYPE":"U","MEAN_MOTION":15.16853897,"ECCENTRICITY":0.00077652,"INCLINATION":97.501,"RA_OF_ASC_NODE":276.4351,"ARG_OF_PERICENTER":258.4134,"MEAN_ANOMALY":101.6227,"EPHEMERIS_TYPE":0,"NORAD_CAT_ID":59625,"ELEMENT_SET_NO":999,"REV_AT_EPOCH":12219,"BSTAR":0.000093183551,"MEAN_MOTION_DOT":0.00001767,"MEAN_MOTION_DDOT":0},{"OBJECT_NAME":"LEGION 2","OBJECT_ID":"2024-081B","EPOCH":"2026-07-17T22:25:15.022560","CLASSIFICATION_TYPE":"U","MEAN_MOTION":15.16833315,"ECCENTRICITY":0.00104133,"INCLINATION":97.501,"RA_OF_ASC_NODE":276.5619,"ARG_OF_PERICENTER":222.9654,"MEAN_ANOMALY":137.0767,"EPHEMERIS_TYPE":0,"NORAD_CAT_ID":59626,"ELEMENT_SET_NO":999,"REV_AT_EPOCH":12220,"BSTAR":0.000098776543,"MEAN_MOTION_DOT":0.00001877,"MEAN_MOTION_DDOT":0},{"OBJECT_NAME":"LEGION 3","OBJECT_ID":"2024-146A","EPOCH":"2026-07-17T21:46:05.658816","CLASSIFICATION_TYPE":"U","MEAN_MOTION":15.15663952,"ECCENTRICITY":0.00079592,"INCLINATION":45.0016,"RA_OF_ASC_NODE":225.8528,"ARG_OF_PERICENTER":348.7581,"MEAN_ANOMALY":11.3118,"EPHEMERIS_TYPE":0,"NORAD_CAT_ID":60452,"ELEMENT_SET_NO":999,"REV_AT_EPOCH":10668,"BSTAR":0.000074029421,"MEAN_MOTION_DOT":0.00001168,"MEAN_MOTION_DDOT":0},{"OBJECT_NAME":"LEGION 4","OBJECT_ID":"2024-146B","EPOCH":"2026-07-17T20:10:44.704416","CLASSIFICATION_TYPE":"U","MEAN_MOTION":15.15691715,"ECCENTRICITY":0.00090781,"INCLINATION":45.0026,"RA_OF_ASC_NODE":318.0755,"ARG_OF_PERICENTER":130.1467,"MEAN_ANOMALY":230.0208,"EPHEMERIS_TYPE":0,"NORAD_CAT_ID":60453,"ELEMENT_SET_NO":999,"REV_AT_EPOCH":10552,"BSTAR":0.000098033984,"MEAN_MOTION_DOT":0.00001635,"MEAN_MOTION_DDOT":0},{"OBJECT_NAME":"LEGION 5","OBJECT_ID":"2025-025A","EPOCH":"2026-07-17T20:10:46.744320","CLASSIFICATION_TYPE":"U","MEAN_MOTION":15.15709004,"ECCENTRICITY":0.00079959,"INCLINATION":45.0019,"RA_OF_ASC_NODE":137.033,"ARG_OF_PERICENTER":303.7651,"MEAN_ANOMALY":56.2465,"EPHEMERIS_TYPE":0,"NORAD_CAT_ID":62900,"ELEMENT_SET_NO":999,"REV_AT_EPOCH":7914,"BSTAR":0.00005722983,"MEAN_MOTION_DOT":0.00000844,"MEAN_MOTION_DDOT":0},{"OBJECT_NAME":"LEGION 6","OBJECT_ID":"2025-025B","EPOCH":"2026-07-17T21:44:27.610368","CLASSIFICATION_TYPE":"U","MEAN_MOTION":15.15699172,"ECCENTRICITY":0.00107234,"INCLINATION":45.0031,"RA_OF_ASC_NODE":45.832,"ARG_OF_PERICENTER":290.6091,"MEAN_ANOMALY":69.3637,"EPHEMERIS_TYPE":0,"NORAD_CAT_ID":62901,"ELEMENT_SET_NO":999,"REV_AT_EPOCH":8029,"BSTAR":0.00010691079,"MEAN_MOTION_DOT":0.00001808,"MEAN_MOTION_DDOT":0}]}
